{
  "type": "FeatureCollection",
  "features": [
    {
      "type": "Feature",
      "properties": {
        "norad_id": 44624,
        "name": "EUTELSAT 5 WEST B (EGNOS/PRN 121)",
        "group": "gnss",
        "lat": -0.004305818465877874,
        "lon": 157.97637348059249,
        "alt_km": 35790.57287592883,
        "timestamp": "2025-12-19T04:59:48.549120+00:00",
        "meta_object_name": "EUTELSAT 5 WEST B (EGNOS/PRN 121)",
        "meta_object_id": "2019-067A",
        "meta_epoch": "2025-12-18T14:59:01.972032",
        "meta_mean_motion": 1.00271288,
        "meta_eccentricity": 0.00030017,
        "meta_inclination": 0.0695,
        "meta_ra_of_asc_node": 331.3253,
        "meta_arg_of_pericenter": 296.7511,
        "meta_mean_anomaly": 39.1751,
        "meta_ephemeris_type": 0,
        "meta_classification_type": "U",
        "meta_norad_cat_id": 44624,
        "meta_element_set_no": 999,
        "meta_rev_at_epoch": 2262,
        "meta_bstar": 0,
        "meta_mean_motion_dot": -1.7e-07,
        "meta_mean_motion_ddot": 0,
        "tle_line1": "1 44624U 19067A   25352.62432838 -.00000017  00000+0  00000+0 0  9993",
        "tle_line2": "2 44624   0.0695 331.3253 0003001 296.7511  39.1751  1.00271288 22624"
      },
      "geometry": {
        "type": "Point",
        "coordinates": [
          157.97637348059249,
          -0.004305818465877874
        ]
      }
    },
    {
      "type": "Feature",
      "properties": {
        "norad_id": 44709,
        "name": "BEIDOU-3 IGSO-3 (C40)",
        "group": "gnss",
        "lat": -5.879791257406336,
        "lon": -81.29718306067844,
        "alt_km": 35974.80964456745,
        "timestamp": "2025-12-19T04:59:48.549132+00:00",
        "meta_object_name": "BEIDOU-3 IGSO-3 (C40)",
        "meta_object_id": "2019-073A",
        "meta_epoch": "2025-11-20T07:11:22.740000",
        "meta_mean_motion": 1.00250097,
        "meta_eccentricity": 0.0044538,
        "meta_inclination": 55.163,
        "meta_ra_of_asc_node": 283.159,
        "meta_arg_of_pericenter": 191.5856,
        "meta_mean_anomaly": 168.2409,
        "meta_ephemeris_type": 0,
        "meta_classification_type": "U",
        "meta_norad_cat_id": 44709,
        "meta_element_set_no": 999,
        "meta_rev_at_epoch": 2236,
        "meta_bstar": 0,
        "meta_mean_motion_dot": -2.06e-06,
        "meta_mean_motion_ddot": 0,
        "tle_line1": "1 44709U 19073A   25324.29956875 -.00000206  00000+0  00000+0 0  9998",
        "tle_line2": "2 44709  55.1630 283.1590 0044538 191.5856 168.2409  1.00250097 22360"
      },
      "geometry": {
        "type": "Point",
        "coordinates": [
          -81.29718306067844,
          -5.879791257406336
        ]
      }
    },
    {
      "type": "Feature",
      "properties": {
        "norad_id": 44793,
        "name": "BEIDOU-3 M22 (C44)",
        "group": "gnss",
        "lat": 3.1033443063177732,
        "lon": -51.61710647266066,
        "alt_km": 21512.096909900574,
        "timestamp": "2025-12-19T04:59:48.549147+00:00",
        "meta_object_name": "BEIDOU-3 M22 (C44)",
        "meta_object_id": "2019-078A",
        "meta_epoch": "2025-12-18T03:05:10.380768",
        "meta_mean_motion": 1.86232153,
        "meta_eccentricity": 0.00060099,
        "meta_inclination": 54.1032,
        "meta_ra_of_asc_node": 306.1968,
        "meta_arg_of_pericenter": 24.2925,
        "meta_mean_anomaly": 335.7236,
        "meta_ephemeris_type": 0,
        "meta_classification_type": "U",
        "meta_norad_cat_id": 44793,
        "meta_element_set_no": 999,
        "meta_rev_at_epoch": 4127,
        "meta_bstar": 0,
        "meta_mean_motion_dot": -8.5e-07,
        "meta_mean_motion_ddot": 0,
        "tle_line1": "1 44793U 19078A   25352.12859237 -.00000085  00000+0  00000+0 0  9998",
        "tle_line2": "2 44793  54.1032 306.1968 0006009  24.2925 335.7236  1.86232153 41270"
      },
      "geometry": {
        "type": "Point",
        "coordinates": [
          -51.61710647266066,
          3.1033443063177732
        ]
      }
    },
    {
      "type": "Feature",
      "properties": {
        "norad_id": 44794,
        "name": "BEIDOU-3 M21 (C43)",
        "group": "gnss",
        "lat": -54.05972480106861,
        "lon": -141.49534677886828,
        "alt_km": 21536.258703185995,
        "timestamp": "2025-12-19T04:59:48.549166+00:00",
        "meta_object_name": "BEIDOU-3 M21 (C43)",
        "meta_object_id": "2019-078B",
        "meta_epoch": "2025-12-16T15:43:55.727904",
        "meta_mean_motion": 1.86227668,
        "meta_eccentricity": 0.00041169,
        "meta_inclination": 54.078,
        "meta_ra_of_asc_node": 306.2132,
        "meta_arg_of_pericenter": 11.942,
        "meta_mean_anomaly": 348.0544,
        "meta_ephemeris_type": 0,
        "meta_classification_type": "U",
        "meta_norad_cat_id": 44794,
        "meta_element_set_no": 999,
        "meta_rev_at_epoch": 4125,
        "meta_bstar": 0,
        "meta_mean_motion_dot": -9.5e-07,
        "meta_mean_motion_ddot": 0,
        "tle_line1": "1 44794U 19078B   25350.65550611 -.00000095  00000+0  00000+0 0  9990",
        "tle_line2": "2 44794  54.0780 306.2132 0004116  11.9420 348.0544  1.86227668 41256"
      },
      "geometry": {
        "type": "Point",
        "coordinates": [
          -141.49534677886828,
          -54.05972480106861
        ]
      }
    },
    {
      "type": "Feature",
      "properties": {
        "norad_id": 44850,
        "name": "COSMOS 2544 (759)",
        "group": "gnss",
        "lat": -59.99864727265344,
        "lon": 27.59436734087737,
        "alt_km": 19108.43078544584,
        "timestamp": "2025-12-19T04:59:48.549178+00:00",
        "meta_object_name": "COSMOS 2544 (759)",
        "meta_object_id": "2019-088A",
        "meta_epoch": "2025-12-16T11:40:43.010688",
        "meta_mean_motion": 2.13101965,
        "meta_eccentricity": 0.00138869,
        "meta_inclination": 65.4623,
        "meta_ra_of_asc_node": 79.8328,
        "meta_arg_of_pericenter": 249.7945,
        "meta_mean_anomaly": 110.0707,
        "meta_ephemeris_type": 0,
        "meta_classification_type": "U",
        "meta_norad_cat_id": 44850,
        "meta_element_set_no": 999,
        "meta_rev_at_epoch": 4682,
        "meta_bstar": 0,
        "meta_mean_motion_dot": -5.3e-07,
        "meta_mean_motion_ddot": 0,
        "tle_line1": "1 44850U 19088A   25350.48660892 -.00000053  00000+0  00000+0 0  9992",
        "tle_line2": "2 44850  65.4623  79.8328 0013886 249.7945 110.0707  2.13101965 46826"
      },
      "geometry": {
        "type": "Point",
        "coordinates": [
          27.59436734087737,
          -59.99864727265344
        ]
      }
    },
    {
      "type": "Feature",
      "properties": {
        "norad_id": 44864,
        "name": "BEIDOU-3 M19 (C41)",
        "group": "gnss",
        "lat": 52.72422817782392,
        "lon": -171.94795580601328,
        "alt_km": 21572.337206404605,
        "timestamp": "2025-12-19T04:59:48.549207+00:00",
        "meta_object_name": "BEIDOU-3 M19 (C41)",
        "meta_object_id": "2019-090A",
        "meta_epoch": "2025-12-18T12:21:17.080992",
        "meta_mean_motion": 1.86231635,
        "meta_eccentricity": 0.00181366,
        "meta_inclination": 56.3981,
        "meta_ra_of_asc_node": 68.7699,
        "meta_arg_of_pericenter": 285.1234,
        "meta_mean_anomaly": 77.2184,
        "meta_ephemeris_type": 0,
        "meta_classification_type": "U",
        "meta_norad_cat_id": 44864,
        "meta_element_set_no": 999,
        "meta_rev_at_epoch": 4087,
        "meta_bstar": 0,
        "meta_mean_motion_dot": -6.2e-07,
        "meta_mean_motion_ddot": 0,
        "tle_line1": "1 44864U 19090A   25352.51478103 -.00000062  00000+0  00000+0 0  9998",
        "tle_line2": "2 44864  56.3981  68.7699 0018136 285.1234  77.2184  1.86231635 40872"
      },
      "geometry": {
        "type": "Point",
        "coordinates": [
          -171.94795580601328,
          52.72422817782392
        ]
      }
    },
    {
      "type": "Feature",
      "properties": {
        "norad_id": 44865,
        "name": "BEIDOU-3 M20 (C42)",
        "group": "gnss",
        "lat": -13.85212290909312,
        "lon": -101.7829040362576,
        "alt_km": 21537.685814456,
        "timestamp": "2025-12-19T04:59:48.549219+00:00",
        "meta_object_name": "BEIDOU-3 M20 (C42)",
        "meta_object_id": "2019-090B",
        "meta_epoch": "2025-12-18T13:12:22.451040",
        "meta_mean_motion": 1.86231689,
        "meta_eccentricity": 0.00154108,
        "meta_inclination": 56.3994,
        "meta_ra_of_asc_node": 68.8029,
        "meta_arg_of_pericenter": 297.0214,
        "meta_mean_anomaly": 178.7198,
        "meta_ephemeris_type": 0,
        "meta_classification_type": "U",
        "meta_norad_cat_id": 44865,
        "meta_element_set_no": 999,
        "meta_rev_at_epoch": 4085,
        "meta_bstar": 0,
        "meta_mean_motion_dot": -6.2e-07,
        "meta_mean_motion_ddot": 0,
        "tle_line1": "1 44865U 19090B   25352.55025985 -.00000062  00000+0  00000+0 0  9999",
        "tle_line2": "2 44865  56.3994  68.8029 0015410 297.0214 178.7198  1.86231689 40856"
      },
      "geometry": {
        "type": "Point",
        "coordinates": [
          -101.7829040362576,
          -13.85212290909312
        ]
      }
    }
  ]
}